[
    {
        "Altitude(m)": 705703.2906107295,
        "Argument of Periapsis(deg)": 0.005695060593313534,
        "Eccentricity": 0.0,
        "Inclination(deg)": 45.0,
        "Latitude(deg)": 37.753335601372164,
        "Longitude(deg)": -175.744651376875,
        "Mean Anomaly(deg)": 120.31210832374038,
        "RAAN(deg)": 154.99462402927088,
        "Satellite Name": "Constellation 1 689",
        "Satellite Number": 689,
        "Semi-Major Axis(m)": 7083131.272910544,
        "Time(s)": 95
    },
    {
        "Altitude(m)": 705697.6612776918,
        "Argument of Periapsis(deg)": 0.00575500859955894,
        "Eccentricity": 0.0,
        "Inclination(deg)": 45.0,
        "Latitude(deg)": 37.725846726873336,
        "Longitude(deg)": -175.6803855567315,
        "Mean Anomaly(deg)": 120.37280946399036,
        "RAAN(deg)": 154.99456744010533,
        "Satellite Name": "Constellation 1 689",
        "Satellite Number": 689,
        "Semi-Major Axis(m)": 7083131.272910544,
        "Time(s)": 96
    },
    {
        "Altitude(m)": 705692.0269933479,
        "Argument of Periapsis(deg)": 0.005814956605804345,
        "Eccentricity": 0.0,
        "Inclination(deg)": 45.0,
        "Latitude(deg)": 37.698318108368504,
        "Longitude(deg)": -175.61617009228252,
        "Mean Anomaly(deg)": 120.4335106042402,
        "RAAN(deg)": 154.99451085093978,
        "Satellite Name": "Constellation 1 689",
        "Satellite Number": 689,
        "Semi-Major Axis(m)": 7083131.272910544,
        "Time(s)": 97
    },
    {
        "Altitude(m)": 705686.3877926226,
        "Argument of Periapsis(deg)": 0.00587490461204975,
        "Eccentricity": 0.0,
        "Inclination(deg)": 45.0,
        "Latitude(deg)": 37.67074981380387,
        "Longitude(deg)": -175.55200513683718,
        "Mean Anomaly(deg)": 120.49421174449012,
        "RAAN(deg)": 154.9944542617742,
        "Satellite Name": "Constellation 1 689",
        "Satellite Number": 689,
        "Semi-Major Axis(m)": 7083131.272910544,
        "Time(s)": 98
    },
    {
        "Altitude(m)": 705680.7437104757,
        "Argument of Periapsis(deg)": 0.005934852618295156,
        "Eccentricity": 0.0,
        "Inclination(deg)": 45.0,
        "Latitude(deg)": 37.64314191108737,
        "Longitude(deg)": -175.4878906752814,
        "Mean Anomaly(deg)": 120.55491288474,
        "RAAN(deg)": 154.99439767260864,
        "Satellite Name": "Constellation 1 689",
        "Satellite Number": 689,
        "Semi-Major Axis(m)": 7083131.272910544,
        "Time(s)": 99
    },
    {
        "Altitude(m)": 705675.0947819033,
        "Argument of Periapsis(deg)": 0.005994800624540561,
        "Eccentricity": 0.0,
        "Inclination(deg)": 45.0,
        "Latitude(deg)": 37.61549446808817,
        "Longitude(deg)": -175.42382669217608,
        "Mean Anomaly(deg)": 120.61561402498992,
        "RAAN(deg)": 154.99434108344303,
        "Satellite Name": "Constellation 1 689",
        "Satellite Number": 689,
        "Semi-Major Axis(m)": 7083131.272910544,
        "Time(s)": 100
    },
    {
        "Altitude(m)": 705669.4410419412,
        "Argument of Periapsis(deg)": 0.006054748630785968,
        "Eccentricity": 0.0,
        "Inclination(deg)": 45.0,
        "Latitude(deg)": 37.587807552636626,
        "Longitude(deg)": -175.3598131717586,
        "Mean Anomaly(deg)": 120.67631516523979,
        "RAAN(deg)": 154.99428449427748,
        "Satellite Name": "Constellation 1 689",
        "Satellite Number": 689,
        "Semi-Major Axis(m)": 7083131.272910544,
        "Time(s)": 101
    },
    {
        "Altitude(m)": 705663.7825256702,
        "Argument of Periapsis(deg)": 0.006114696637031373,
        "Eccentricity": 0.0,
        "Inclination(deg)": 45.0,
        "Latitude(deg)": 37.560081232523665,
        "Longitude(deg)": -175.29585009794434,
        "Mean Anomaly(deg)": 120.73701630548969,
        "RAAN(deg)": 154.9942279051119,
        "Satellite Name": "Constellation 1 689",
        "Satellite Number": 689,
        "Semi-Major Axis(m)": 7083131.272910544,
        "Time(s)": 102
    },
    {
        "Altitude(m)": 705658.119268207,
        "Argument of Periapsis(deg)": 0.006174644643276778,
        "Eccentricity": 0.0,
        "Inclination(deg)": 45.0,
        "Latitude(deg)": 37.53231557550059,
        "Longitude(deg)": -175.23193745432812,
        "Mean Anomaly(deg)": 120.7977174457396,
        "RAAN(deg)": 154.99417131594635,
        "Satellite Name": "Constellation 1 689",
        "Satellite Number": 689,
        "Semi-Major Axis(m)": 7083131.272910544,
        "Time(s)": 103
    },
    {
        "Altitude(m)": 705652.4513047029,
        "Argument of Periapsis(deg)": 0.006234592649522184,
        "Eccentricity": 0.0,
        "Inclination(deg)": 45.0,
        "Latitude(deg)": 37.50451064927872,
        "Longitude(deg)": -175.16807539228245,
        "Mean Anomaly(deg)": 120.85841858598953,
        "RAAN(deg)": 154.9941147267808,
        "Satellite Name": "Constellation 1 689",
        "Satellite Number": 689,
        "Semi-Major Axis(m)": 7083131.272910544,
        "Time(s)": 104
    },
    {
        "Altitude(m)": 705646.7786703535,
        "Argument of Periapsis(deg)": 0.00629454065576759,
        "Eccentricity": 0.0,
        "Inclination(deg)": 45.0,
        "Latitude(deg)": 37.47666652152826,
        "Longitude(deg)": -175.10426355857132,
        "Mean Anomaly(deg)": 120.91911972623936,
        "RAAN(deg)": 154.9940581376152,
        "Satellite Name": "Constellation 1 689",
        "Satellite Number": 689,
        "Semi-Major Axis(m)": 7083131.272910544,
        "Time(s)": 105
    },
    {
        "Altitude(m)": 705641.1014003927,
        "Argument of Periapsis(deg)": 0.006354488662012995,
        "Eccentricity": 0.0,
        "Inclination(deg)": 45.0,
        "Latitude(deg)": 37.44878325987921,
        "Longitude(deg)": -175.04050210393325,
        "Mean Anomaly(deg)": 120.97982086648928,
        "RAAN(deg)": 154.99400154844963,
        "Satellite Name": "Constellation 1 689",
        "Satellite Number": 689,
        "Semi-Major Axis(m)": 7083131.272910544,
        "Time(s)": 106
    },
    {
        "Altitude(m)": 705635.4195300912,
        "Argument of Periapsis(deg)": 0.006414436668258401,
        "Eccentricity": 0.0,
        "Inclination(deg)": 45.0,
        "Latitude(deg)": 37.420860931920195,
        "Longitude(deg)": -174.9767910106949,
        "Mean Anomaly(deg)": 121.04052200673922,
        "RAAN(deg)": 154.99394495928408,
        "Satellite Name": "Constellation 1 689",
        "Satellite Number": 689,
        "Semi-Major Axis(m)": 7083131.272910544,
        "Time(s)": 107
    },
    {
        "Altitude(m)": 705629.7330947575,
        "Argument of Periapsis(deg)": 0.0064743846745038075,
        "Eccentricity": 0.0,
        "Inclination(deg)": 45.0,
        "Latitude(deg)": 37.39289960519833,
        "Longitude(deg)": -174.91313026086982,
        "Mean Anomaly(deg)": 121.10122314698908,
        "RAAN(deg)": 154.9938883701185,
        "Satellite Name": "Constellation 1 689",
        "Satellite Number": 689,
        "Semi-Major Axis(m)": 7083131.272910544,
        "Time(s)": 108
    },
    {
        "Altitude(m)": 705624.0421297391,
        "Argument of Periapsis(deg)": 0.0065343326807492125,
        "Eccentricity": 0.0,
        "Inclination(deg)": 45.0,
        "Latitude(deg)": 37.36489934721857,
        "Longitude(deg)": -174.84951983615923,
        "Mean Anomaly(deg)": 121.16192428723897,
        "RAAN(deg)": 154.99383178095292,
        "Satellite Name": "Constellation 1 689",
        "Satellite Number": 689,
        "Semi-Major Axis(m)": 7083131.272910544,
        "Time(s)": 109
    },
    {
        "Altitude(m)": 705618.3466704254,
        "Argument of Periapsis(deg)": 0.0065942806869946176,
        "Eccentricity": 0.0,
        "Inclination(deg)": 45.0,
        "Latitude(deg)": 37.33686022544365,
        "Longitude(deg)": -174.7859597179538,
        "Mean Anomaly(deg)": 121.22262542748891,
        "RAAN(deg)": 154.99377519178736,
        "Satellite Name": "Constellation 1 689",
        "Satellite Number": 689,
        "Semi-Major Axis(m)": 7083131.272910544,
        "Time(s)": 110
    },
    {
        "Altitude(m)": 705612.646752233,
        "Argument of Periapsis(deg)": 0.006654228693240024,
        "Eccentricity": 0.0,
        "Inclination(deg)": 45.0,
        "Latitude(deg)": 37.30878230729407,
        "Longitude(deg)": -174.72245005543252,
        "Mean Anomaly(deg)": 121.28332656773875,
        "RAAN(deg)": 154.99371860262178,
        "Satellite Name": "Constellation 1 689",
        "Satellite Number": 689,
        "Semi-Major Axis(m)": 7083131.272910544,
        "Time(s)": 111
    },
    {
        "Altitude(m)": 705606.9424106309,
        "Argument of Periapsis(deg)": 0.006714176699485429,
        "Eccentricity": 0.0,
        "Inclination(deg)": 45.0,
        "Latitude(deg)": 37.280665660146184,
        "Longitude(deg)": -174.6589904931751,
        "Mean Anomaly(deg)": 121.34402770798872,
        "RAAN(deg)": 154.99366201345623,
        "Satellite Name": "Constellation 1 689",
        "Satellite Number": 689,
        "Semi-Major Axis(m)": 7083131.272910544,
        "Time(s)": 112
    },
    {
        "Altitude(m)": 705601.2336811126,
        "Argument of Periapsis(deg)": 0.006774124705730835,
        "Eccentricity": 0.0,
        "Inclination(deg)": 45.0,
        "Latitude(deg)": 37.252510351334024,
        "Longitude(deg)": -174.59558117974655,
        "Mean Anomaly(deg)": 121.40472884823853,
        "RAAN(deg)": 154.99360542429065,
        "Satellite Name": "Constellation 1 689",
        "Satellite Number": 689,
        "Semi-Major Axis(m)": 7083131.272910544,
        "Time(s)": 113
    }
]